{
  "norad_id": 62097,
  "name": "STARLINK-11367 [DTC]",
  "history": [
    {
      "epoch": "2026-03-27T23:36:33.011424",
      "apogee_km": 357.566562937036,
      "perigee_km": 355.24880203911016,
      "latitude_deg": 22.911584154282078,
      "longitude_deg": 28.136679359944537,
      "semi_major_axis_km": 6734.544682488073,
      "eccentricity": 0.00017208,
      "inclination_deg": 42.9989,
      "raan_deg": 292.5106,
      "arg_perigee_deg": 295.8385,
      "mean_anomaly_deg": 64.2305,
      "mean_motion_rev_day": 15.70870572
    }
  ]
}