{"fetched_at":"2026-03-29T16:36:15Z","count":15609,"tles":[{"name":"STARLINK-11367 [DTC]","line1":"1 62097U 24220K   26086.98371541  .00162858  00000+0  12464-2 0  9992","line2":"2 62097  42.9989 292.5106 0001720 295.8385  64.2305 15.70870572 77930","category":"Starlink"}]}